{
  "type": "FeatureCollection",
  "features": [
    {
      "type": "Feature",
      "properties": {
        "norad_id": 66900,
        "name": "STARLINK-36074",
        "group": "last-30-days",
        "lat": -51.69186260114925,
        "lon": -5.809684160772697,
        "alt_km": 303.08545525309,
        "timestamp": "2025-12-14T07:33:18.189300+00:00",
        "meta_object_name": "STARLINK-36074",
        "meta_object_id": "2025-283Y",
        "meta_epoch": "2025-12-13T14:00:03.000384",
        "meta_mean_motion": 15.93512534,
        "meta_eccentricity": 9.552e-05,
        "meta_inclination": 53.1544,
        "meta_ra_of_asc_node": 69.5893,
        "meta_arg_of_pericenter": 57.8846,
        "meta_mean_anomaly": 347.5399,
        "meta_ephemeris_type": 0,
        "meta_classification_type": "U",
        "meta_norad_cat_id": 66900,
        "meta_element_set_no": 999,
        "meta_rev_at_epoch": 256,
        "meta_bstar": -0.0037295283,
        "meta_mean_motion_dot": -0.01368249,
        "meta_mean_motion_ddot": 0.00054905745,
        "tle_line1": "1 66900U 25283Y   25347.58336806 -.01368249  54906-3 -37295-2 0  9991",
        "tle_line2": "2 66900  53.1544  69.5893 0000955  57.8846 347.5399 15.93512534  2563"
      },
      "geometry": {
        "type": "Point",
        "coordinates": [
          -5.809684160772697,
          -51.69186260114925
        ]
      }
    },
    {
      "type": "Feature",
      "properties": {
        "norad_id": 66901,
        "name": "STARLINK-36043",
        "group": "last-30-days",
        "lat": -51.04631879776741,
        "lon": -2.2052684469723425,
        "alt_km": 303.15890687874526,
        "timestamp": "2025-12-14T07:33:18.189311+00:00",
        "meta_object_name": "STARLINK-36043",
        "meta_object_id": "2025-283Z",
        "meta_epoch": "2025-12-13T14:00:03.000384",
        "meta_mean_motion": 15.93574352,
        "meta_eccentricity": 0.00011704,
        "meta_inclination": 53.1545,
        "meta_ra_of_asc_node": 69.5847,
        "meta_arg_of_pericenter": 50.5828,
        "meta_mean_anomaly": 357.0462,
        "meta_ephemeris_type": 0,
        "meta_classification_type": "U",
        "meta_norad_cat_id": 66901,
        "meta_element_set_no": 999,
        "meta_rev_at_epoch": 256,
        "meta_bstar": -0.0037477676,
        "meta_mean_motion_dot": -0.01379334,
        "meta_mean_motion_ddot": 0.00055754287,
        "tle_line1": "1 66901U 25283Z   25347.58336806 -.01379334  55754-3 -37478-2 0  9994",
        "tle_line2": "2 66901  53.1545  69.5847 0001170  50.5828 357.0462 15.93574352  2567"
      },
      "geometry": {
        "type": "Point",
        "coordinates": [
          -2.2052684469723425,
          -51.04631879776741
        ]
      }
    },
    {
      "type": "Feature",
      "properties": {
        "norad_id": 66902,
        "name": "STARLINK-35983",
        "group": "last-30-days",
        "lat": -50.11791162687664,
        "lon": 2.025771318034238,
        "alt_km": 302.7649547211158,
        "timestamp": "2025-12-14T07:33:18.189321+00:00",
        "meta_object_name": "STARLINK-35983",
        "meta_object_id": "2025-283AA",
        "meta_epoch": "2025-12-13T14:00:03.000384",
        "meta_mean_motion": 15.93654122,
        "meta_eccentricity": 9.537e-05,
        "meta_inclination": 53.1544,
        "meta_ra_of_asc_node": 69.5795,
        "meta_arg_of_pericenter": 57.2069,
        "meta_mean_anomaly": 353.1282,
        "meta_ephemeris_type": 0,
        "meta_classification_type": "U",
        "meta_norad_cat_id": 66902,
        "meta_element_set_no": 999,
        "meta_rev_at_epoch": 256,
        "meta_bstar": -0.0038283332,
        "meta_mean_motion_dot": -0.01414465,
        "meta_mean_motion_ddot": 0.00058419297,
        "tle_line1": "1 66902U 25283AA  25347.58336806 -.01414465  58419-3 -38283-2 0  9996",
        "tle_line2": "2 66902  53.1544  69.5795 0000953  57.2069 353.1282 15.93654122  2569"
      },
      "geometry": {
        "type": "Point",
        "coordinates": [
          2.025771318034238,
          -50.11791162687664
        ]
      }
    },
    {
      "type": "Feature",
      "properties": {
        "norad_id": 66903,
        "name": "STARLINK-36077",
        "group": "last-30-days",
        "lat": -49.27283636243749,
        "lon": 5.269990162091097,
        "alt_km": 302.82316249327505,
        "timestamp": "2025-12-14T07:33:18.189331+00:00",
        "meta_object_name": "STARLINK-36077",
        "meta_object_id": "2025-283AB",
        "meta_epoch": "2025-12-13T14:00:03.000384",
        "meta_mean_motion": 15.9372422,
        "meta_eccentricity": 0.00010117,
        "meta_inclination": 53.1547,
        "meta_ra_of_asc_node": 69.5748,
        "meta_arg_of_pericenter": 44.9961,
        "meta_mean_anomaly": 7.492,
        "meta_ephemeris_type": 0,
        "meta_classification_type": "U",
        "meta_norad_cat_id": 66903,
        "meta_element_set_no": 999,
        "meta_rev_at_epoch": 256,
        "meta_bstar": -0.0039193081,
        "meta_mean_motion_dot": -0.01452975,
        "meta_mean_motion_ddot": 0.00061400699,
        "tle_line1": "1 66903U 25283AB  25347.58336806 -.01452975  61401-3 -39193-2 0  9991",
        "tle_line2": "2 66903  53.1547  69.5748 0001011  44.9961   7.4920 15.93724220  2566"
      },
      "geometry": {
        "type": "Point",
        "coordinates": [
          5.269990162091097,
          -49.27283636243749
        ]
      }
    },
    {
      "type": "Feature",
      "properties": {
        "norad_id": 66904,
        "name": "STARLINK-36059",
        "group": "last-30-days",
        "lat": -48.28357966051928,
        "lon": 8.5737541562185,
        "alt_km": 302.6142355870479,
        "timestamp": "2025-12-14T07:33:18.189341+00:00",
        "meta_object_name": "STARLINK-36059",
        "meta_object_id": "2025-283AC",
        "meta_epoch": "2025-12-13T14:00:03.000384",
        "meta_mean_motion": 15.93790623,
        "meta_eccentricity": 9.705e-05,
        "meta_inclination": 53.1544,
        "meta_ra_of_asc_node": 69.5699,
        "meta_arg_of_pericenter": 61.4813,
        "meta_mean_anomaly": 353.2972,
        "meta_ephemeris_type": 0,
        "meta_classification_type": "U",
        "meta_norad_cat_id": 66904,
        "meta_element_set_no": 999,
        "meta_rev_at_epoch": 256,
        "meta_bstar": -0.0040027006,
        "meta_mean_motion_dot": -0.01488648,
        "meta_mean_motion_ddot": 0.0006422749,
        "tle_line1": "1 66904U 25283AC  25347.58336806 -.01488648  64227-3 -40027-2 0  9995",
        "tle_line2": "2 66904  53.1544  69.5699 0000970  61.4813 353.2972 15.93790623  2561"
      },
      "geometry": {
        "type": "Point",
        "coordinates": [
          8.5737541562185,
          -48.28357966051928
        ]
      }
    },
    {
      "type": "Feature",
      "properties": {
        "norad_id": 66905,
        "name": "STARLINK-36075",
        "group": "last-30-days",
        "lat": -47.352523631557546,
        "lon": 11.331587799723547,
        "alt_km": 302.7070374907171,
        "timestamp": "2025-12-14T07:33:18.189353+00:00",
        "meta_object_name": "STARLINK-36075",
        "meta_object_id": "2025-283AD",
        "meta_epoch": "2025-12-13T14:00:03.000384",
        "meta_mean_motion": 15.93852339,
        "meta_eccentricity": 0.00011115,
        "meta_inclination": 53.1546,
        "meta_ra_of_asc_node": 69.566,
        "meta_arg_of_pericenter": 52.5268,
        "meta_mean_anomaly": 4.2183,
        "meta_ephemeris_type": 0,
        "meta_classification_type": "U",
        "meta_norad_cat_id": 66905,
        "meta_element_set_no": 999,
        "meta_rev_at_epoch": 256,
        "meta_bstar": -0.0040666944,
        "meta_mean_motion_dot": -0.01517055,
        "meta_mean_motion_ddot": 0.00066529597,
        "tle_line1": "1 66905U 25283AD  25347.58336806 -.01517055  66530-3 -40667-2 0  9990",
        "tle_line2": "2 66905  53.1546  69.5660 0001111  52.5268   4.2183 15.93852339  2565"
      },
      "geometry": {
        "type": "Point",
        "coordinates": [
          11.331587799723547,
          -47.352523631557546
        ]
      }
    },
    {
      "type": "Feature",
      "properties": {
        "norad_id": 66906,
        "name": "1998-067XS",
        "group": "last-30-days",
        "lat": -27.91908111562645,
        "lon": -20.570429152508073,
        "alt_km": 415.9087412734316,
        "timestamp": "2025-12-14T07:33:18.189363+00:00",
        "meta_object_name": "1998-067XS",
        "meta_object_id": "1998-067XS",
        "meta_epoch": "2025-12-13T16:42:15.922368",
        "meta_mean_motion": 15.50633628,
        "meta_eccentricity": 0.00035389,
        "meta_inclination": 51.6301,
        "meta_ra_of_asc_node": 137.6756,
        "meta_arg_of_pericenter": 207.2651,
        "meta_mean_anomaly": 152.8153,
        "meta_ephemeris_type": 0,
        "meta_classification_type": "U",
        "meta_norad_cat_id": 66906,
        "meta_element_set_no": 999,
        "meta_rev_at_epoch": 176,
        "meta_bstar": 0.00054648789,
        "meta_mean_motion_dot": 0.00031569,
        "meta_mean_motion_ddot": 0,
        "tle_line1": "1 66906U 98067XS  25347.69601762  .00031569  00000+0  54649-3 0  9999",
        "tle_line2": "2 66906  51.6301 137.6756 0003538 207.2651 152.8153 15.50633628  1760"
      },
      "geometry": {
        "type": "Point",
        "coordinates": [
          -20.570429152508073,
          -27.91908111562645
        ]
      }
    }
  ]
}